[{"OBJECT_NAME":"TIANMU-1 08","OBJECT_ID":"2023-101B","EPOCH":"2026-03-07T00:03:25.475616","MEAN_MOTION":15.29204229,"ECCENTRICITY":0.00063808,"INCLINATION":97.2717,"RA_OF_ASC_NODE":118.7901,"ARG_OF_PERICENTER":134.2174,"MEAN_ANOMALY":225.9592,"EPHEMERIS_TYPE":0,"CLASSIFICATION_TYPE":"U","NORAD_CAT_ID":57400,"ELEMENT_SET_NO":999,"REV_AT_EPOCH":14602,"BSTAR":1.4774513e-5,"MEAN_MOTION_DOT":3.46e-6,"MEAN_MOTION_DDOT":0},{"OBJECT_NAME":"STARLINK-31607","OBJECT_ID":"2024-062W","EPOCH":"2026-03-09T19:54:06.653088","MEAN_MOTION":15.30206188,"ECCENTRICITY":9.771e-5,"INCLINATION":53.16,"RA_OF_ASC_NODE":254.95,"ARG_OF_PERICENTER":87.6383,"MEAN_ANOMALY":272.473,"EPHEMERIS_TYPE":0,"CLASSIFICATION_TYPE":"U","NORAD_CAT_ID":59394,"ELEMENT_SET_NO":999,"REV_AT_EPOCH":10968,"BSTAR":0.00013237241,"MEAN_MOTION_DOT":3.564e-5,"MEAN_MOTION_DDOT":0}]
